QUBE                    
1 60476U 24149J   26186.21306620  .00043169  00000+0  82070-3 0  9998
2 60476  97.3771 273.0040 0002996 151.5002 208.6412 15.48128628105256
WREN-1                  
1 60478U 24149L   26186.04607438  .00035602  00000+0  82566-3 0  9995
2 60478  97.3759 270.3545 0004624 181.5022 178.6212 15.42310978105078
TOMORROW-S1             
1 60479U 24149M   26186.02326961  .00012666  00000+0  39969-3 0  9997
2 60479  97.3742 266.4419 0003296 155.2272 204.9129 15.32986707104826
FLOCK 4BE-18            
1 60480U 24149N   26185.53569073  .00044602  00000+0  10259-2 0  9992
2 60480  97.3719 269.4528 0004335 175.7770 184.3515 15.42509485104983
FLOCK 4BE-7             
1 60481U 24149P   26186.14410370  .00038963  00000+0  93941-3 0  9999
2 60481  97.3752 269.3746 0003575 176.2324 183.8951 15.41124277105012
TOMORROW-S2             
1 60485U 24149T   26185.46590506  .00011404  00000+0  35986-3 0  9993
2 60485  97.3814 266.3916 0002827 177.4884 182.6373 15.33015598104733
FLOCK 4BE-36            
1 60486U 24149U   26186.14610528  .00028121  00000+0  63205-3 0  9996
2 60486  97.3738 270.7961 0003967 180.9130 179.2111 15.43300611105127
FLOCK 4BE-25            
1 60487U 24149V   26186.03254181  .00023808  00000+0  61081-3 0  9991
2 60487  97.3790 269.3090 0002971 165.3909 194.7423 15.39333591104987
FLOCK 4BE-31            
1 60488U 24149W   26186.16021238  .00034015  00000+0  72486-3 0  9994
2 60488  97.3792 271.7214 0003021 176.4402 183.6869 15.44847066105157
FLOCK 4BE-20            
1 60489U 24149X   26186.13490253  .00025376  00000+0  66618-3 0  9999
2 60489  97.3689 268.2457 0004150 181.5629 178.5604 15.38609551104972
FLOCK 4BE-23            
1 60490U 24149Y   26186.12989231  .00023630  00000+0  62964-3 0  9990
2 60490  97.3774 268.6268 0003705 184.9278 175.1931 15.38167122104952
FLOCK 4BE-17            
1 60492U 24149AA  26186.02418053  .00026154  00000+0  64893-3 0  9997
2 60492  97.3765 269.5399 0003641 172.7146 187.4154 15.40335602105000
NUSAT-50 (NANCY ROMAN)  
1 60493U 24149AB  26186.15381895  .00015927  00000+0  54709-3 0  9996
2 60493  97.3781 267.2877 0004661 126.0757 234.0916 15.30191785104878
FLOCK 4BE-22            
1 60494U 24149AC  26186.18434426  .00026263  00000+0  62188-3 0  9994
2 60494  97.3727 269.9220 0003978 183.7840 176.3377 15.41749892105075
FLOCK 4BE-34            
1 60495U 24149AD  26186.13679238  .00026670  00000+0  63209-3 0  9999
2 60495  97.3777 270.7077 0003870 190.7052 169.4113 15.41720122105093
TYCHE                   
1 60496U 24149AE  26186.16907100  .00007125  00000+0  28058-3 0  9992
2 60496  97.3746 263.7447 0002479 185.7847 174.3363 15.25913635104640
FLOCK 4BE-32            
1 60497U 24149AF  26186.22299910  .00030333  00000+0  69238-3 0  9995
2 60497  97.3713 270.3521 0004027 187.3580 172.7609 15.42823453105110
NUSAT-48 (HENRIETTA LE*)
1 60498U 24149AG  26185.68478713  .00044360  00000+0  15152-2 0  9995
2 60498  97.3889 267.0980 0004050 199.8805 160.2279 15.30158963104816
NUSAT-49 (KLARA DAN VO*)
1 60500U 24149AJ  26186.18495555  .00015621  00000+0  53563-3 0  9995
2 60500  97.3773 267.3507 0001489 193.9913 166.1286 15.30263379104886
FLOCK 4BE-11            
1 60501U 24149AK  26186.20812668  .00029149  00000+0  64808-3 0  9991
2 60501  97.3692 270.5846 0004138 187.4957 172.6229 15.43616389105134
YAM-7                   
1 60504U 24149AN  26186.15069391  .00012288  00000+0  39897-3 0  9991
2 60504  97.3775 266.3296 0002669 203.6025 156.5095 15.32080992104803
FLOCK 4BE-24            
1 60505U 24149AP  26186.19315268  .00034689  00000+0  76554-3 0  9993
2 60505  97.3708 270.8328 0004214 201.2673 158.8400 15.43802133105141
LUR-1                   
1 60506U 24149AQ  26186.16118686  .00011968  00000+0  40997-3 0  9993
2 60506  97.3728 264.8612 0003003 222.7533 137.3475 15.30354663104724
TANAGER-1               
1 60507U 24149AR  26183.51180593  .00000446  00000+0  11461-4 0  9990
2 60507  97.2319 277.7150 0002331 253.4701 106.6292 15.44477537105404
EAGLEEYE                
1 60508U 24149AS  26186.05057031  .00179710  00000+0  12040-2 0  9996
2 60508  97.3708 280.4202 0004935 202.8790 157.2256 15.74722487105744
FLOCK 4BE-29            
1 60509U 24149AT  26186.19192343  .00035566  00000+0  75865-3 0  9993
2 60509  97.3805 272.3430 0002699 201.8017 158.3118 15.44810180105195
TRANSPORTER-11 OBJECT AU
1 60510U 24149AU  26186.18118908  .00025253  00000+0  61802-3 0  9997
2 60510  97.3724 270.0511 0003307 200.9796 159.1315 15.40761242105089
