OBJECT_NAME,OBJECT_ID,EPOCH,MEAN_MOTION,ECCENTRICITY,INCLINATION,RA_OF_ASC_NODE,ARG_OF_PERICENTER,MEAN_ANOMALY,EPHEMERIS_TYPE,CLASSIFICATION_TYPE,NORAD_CAT_ID,ELEMENT_SET_NO,REV_AT_EPOCH,BSTAR,MEAN_MOTION_DOT,MEAN_MOTION_DDOT
QUBE,2024-149J,2026-07-05T05:06:48.919680,15.48128628,.00029965,97.3771,273.0040,151.5002,208.6412,0,U,60476,999,10525,.82070073E-3,.43169E-3,0
WREN-1,2024-149L,2026-07-05T01:06:20.826432,15.42310978,.00046244,97.3759,270.3545,181.5022,178.6212,0,U,60478,999,10507,.82566275E-3,.35602E-3,0
TOMORROW-S1,2024-149M,2026-07-05T00:33:30.494304,15.32986707,.00032963,97.3742,266.4419,155.2272,204.9129,0,U,60479,999,10482,.39968904E-3,.12666E-3,0
FLOCK 4BE-18,2024-149N,2026-07-04T12:51:23.679072,15.42509485,.0004335,97.3719,269.4528,175.7770,184.3515,0,U,60480,999,10498,.10259358E-2,.44602E-3,0
FLOCK 4BE-7,2024-149P,2026-07-05T03:27:30.559680,15.41124277,.0003575,97.3752,269.3746,176.2324,183.8951,0,U,60481,999,10501,.93941044E-3,.38963E-3,0
TOMORROW-S2,2024-149T,2026-07-04T11:10:54.197184,15.33015598,.00028273,97.3814,266.3916,177.4884,182.6373,0,U,60485,999,10473,.35985979E-3,.11404E-3,0
FLOCK 4BE-36,2024-149U,2026-07-05T03:30:23.496192,15.43300611,.00039673,97.3738,270.7961,180.9130,179.2111,0,U,60486,999,10512,.63205278E-3,.28121E-3,0
FLOCK 4BE-25,2024-149V,2026-07-05T00:46:51.612384,15.39333591,.00029716,97.3790,269.3090,165.3909,194.7423,0,U,60487,999,10498,.61080608E-3,.23808E-3,0
FLOCK 4BE-31,2024-149W,2026-07-05T03:50:42.349632,15.44847066,.00030213,97.3792,271.7214,176.4402,183.6869,0,U,60488,999,10515,.72486163E-3,.34015E-3,0
FLOCK 4BE-20,2024-149X,2026-07-05T03:14:15.578592,15.38609551,.00041501,97.3689,268.2457,181.5629,178.5604,0,U,60489,999,10497,.6661848E-3,.25376E-3,0
FLOCK 4BE-23,2024-149Y,2026-07-05T03:07:02.695584,15.38167122,.00037055,97.3774,268.6268,184.9278,175.1931,0,U,60490,999,10495,.62963574E-3,.2363E-3,0
FLOCK 4BE-17,2024-149AA,2026-07-05T00:34:49.197792,15.40335602,.00036419,97.3765,269.5399,172.7146,187.4154,0,U,60492,999,10500,.64892581E-3,.26154E-3,0
NUSAT-50 (NANCY ROMAN),2024-149AB,2026-07-05T03:41:29.957280,15.30191785,.00046615,97.3781,267.2877,126.0757,234.0916,0,U,60493,999,10487,.54708553E-3,.15927E-3,0
FLOCK 4BE-22,2024-149AC,2026-07-05T04:25:27.344064,15.41749892,.00039781,97.3727,269.9220,183.7840,176.3377,0,U,60494,999,10507,.62187963E-3,.26263E-3,0
FLOCK 4BE-34,2024-149AD,2026-07-05T03:16:58.861632,15.41720122,.00038705,97.3777,270.7077,190.7052,169.4113,0,U,60495,999,10509,.63208756E-3,.2667E-3,0
TYCHE,2024-149AE,2026-07-05T04:03:27.734400,15.25913635,.00024795,97.3746,263.7447,185.7847,174.3363,0,U,60496,999,10464,.28057512E-3,.7125E-4,0
FLOCK 4BE-32,2024-149AF,2026-07-05T05:21:07.122240,15.42823453,.00040275,97.3713,270.3521,187.3580,172.7609,0,U,60497,999,10511,.69238102E-3,.30333E-3,0
NUSAT-48 (HENRIETTA LEAVITT),2024-149AG,2026-07-04T16:26:05.608032,15.30158963,.000405,97.3889,267.0980,199.8805,160.2279,0,U,60498,999,10481,.15151621E-2,.4436E-3,0
NUSAT-49 (KLARA DAN VON NEUMANN),2024-149AJ,2026-07-05T04:26:20.159520,15.30263379,.00014897,97.3773,267.3507,193.9913,166.1286,0,U,60500,999,10488,.53562646E-3,.15621E-3,0
FLOCK 4BE-11,2024-149AK,2026-07-05T04:59:42.145152,15.43616389,.00041382,97.3692,270.5846,187.4957,172.6229,0,U,60501,999,10513,.64808095E-3,.29149E-3,0
YAM-7,2024-149AN,2026-07-05T03:36:59.953824,15.32080992,.00026691,97.3775,266.3296,203.6025,156.5095,0,U,60504,999,10480,.39897239E-3,.12288E-3,0
FLOCK 4BE-24,2024-149AP,2026-07-05T04:38:08.391552,15.43802133,.00042149,97.3708,270.8328,201.2673,158.8400,0,U,60505,999,10514,.76554151E-3,.34689E-3,0
LUR-1,2024-149AQ,2026-07-05T03:52:06.544704,15.30354663,.00030031,97.3728,264.8612,222.7533,137.3475,0,U,60506,999,10472,.40997288E-3,.11968E-3,0
TANAGER-1,2024-149AR,2026-07-02T12:17:00.032352,15.44477537,.0002331,97.2319,277.7150,253.4701,106.6292,0,U,60507,999,10540,.11461E-4,.446E-5,0
EAGLEEYE,2024-149AS,2026-07-05T01:12:49.274784,15.74722487,.00049355,97.3708,280.4202,202.8790,157.2256,0,U,60508,999,10574,.12039551E-2,.17971E-2,0
FLOCK 4BE-29,2024-149AT,2026-07-05T04:36:22.184352,15.44810180,.00026997,97.3805,272.3430,201.8017,158.3118,0,U,60509,999,10519,.75864937E-3,.35566E-3,0
TRANSPORTER-11 OBJECT AU,2024-149AU,2026-07-05T04:20:54.736512,15.40761242,.00033075,97.3724,270.0511,200.9796,159.1315,0,U,60510,999,10508,.61801695E-3,.25253E-3,0
